[{"OBJECT_NAME":"STARLINK-2214","OBJECT_ID":"2021-041P","EPOCH":"2026-03-09T12:17:07.941408","MEAN_MOTION":15.0641417,"ECCENTRICITY":0.00012693,"INCLINATION":53.0527,"RA_OF_ASC_NODE":142.3892,"ARG_OF_PERICENTER":80.1523,"MEAN_ANOMALY":279.9609,"EPHEMERIS_TYPE":0,"CLASSIFICATION_TYPE":"U","NORAD_CAT_ID":48566,"ELEMENT_SET_NO":999,"REV_AT_EPOCH":26503,"BSTAR":0.00037377226,"MEAN_MOTION_DOT":5.292e-5,"MEAN_MOTION_DDOT":0},{"OBJECT_NAME":"IRIDIUM 33 DEB","OBJECT_ID":"1997-051UN","EPOCH":"2026-03-08T06:46:46.443072","MEAN_MOTION":15.09674475,"ECCENTRICITY":0.00152582,"INCLINATION":86.3393,"RA_OF_ASC_NODE":271.884,"ARG_OF_PERICENTER":69.7211,"MEAN_ANOMALY":290.5665,"EPHEMERIS_TYPE":0,"CLASSIFICATION_TYPE":"U","NORAD_CAT_ID":35929,"ELEMENT_SET_NO":999,"REV_AT_EPOCH":89067,"BSTAR":0.003863549,"MEAN_MOTION_DOT":0.00062834,"MEAN_MOTION_DDOT":0}]
